#dP2023  8 26 12  0  0.00000000      96 __u+U ITR00 EXT  IAC
## 2276 561600.00000000   900.00000000 60182 0.5000000000000
+  118   C06C07C08C09C10C11C12C13C14C16C19C20C21C22C23C24C25
+        C26C27C28C29C30C32C33C34C35C36C37C38C39C40C41C42C43
+        C44C45C46E02E03E04E05E07E08E09E10E11E12E13E14E15E18
+        E19E21E24E25E26E27E30E31E33E34E36G01G02G03G04G05G06
+        G07G08G09G10G11G12G13G14G15G16G17G18G19G20G21G22G23
+        G24G25G26G27G28G29G30G31J02J03J04R01R02R03R04R05R07
+        R08R09R11R12R13R14R15R16R17R18R19R20R21R22R24R25  0
++        10 10  9 10 10  9  8  9  8  9  8 10  8  7  9  9 10
++         7  8  8  9  9  9  8  8  6  8  8 11 10  8  7  8  9
++         6  7  7  6  8  8  8  9  6  9  7  7  7  7  7  8  6
++         7  7  7  7  7  7  6  6  7  5  7  6  6  8  8  7  8
++         6  7  8  6  6  6  6  7  6  7  6  7  7  6  6  8  7
++         8  8  6  9  8  6  7  7  8 11  8  9  7  8  7  8  7
++         7  8  8  6  9  9  9  8  8  8  9  8  8  8  7  7  0
%c M  cc GPS ccc cccc cccc cccc cccc ccccc ccccc ccccc ccccc
%c cc cc ccc ccc cccc cccc cccc cccc ccccc ccccc ccccc ccccc
%f  0.0000000  0.000000000  0.00000000000  0.000000000000000
%f  0.0000000  0.000000000  0.00000000000  0.000000000000000
%i    0    0    0    0      0      0      0      0         0
%i    0    0    0    0      0      0      0      0         0
/* IAC                                ULTRA-RAPID PREDICTION
/* S/V CLOCKS ARE ALIGNED TO GNSS TIME                      
/* G:C1WC2W R:C1PC2P E:C1XC5X C:C2IC6I J:C1CC2S             
/* PCV:IGS20_2274 OL/AL:FES2004  NONE     YN ORB:CoN CLK:CoN
*  2023 08 27  7 30  0.00000000
PC06  -5928.755207  39676.979230  13464.943793    937.485138
PC07  -8741.925254  25963.273859 -31960.670391      6.512541
PC08 -20274.411012  30378.902640  20847.883129    372.516937
PC09  -1848.178709  42114.224007   5618.005534    241.735043
PC10   -797.308536  27678.314748 -31393.162892   -158.619697
PC11  16903.065152   5574.255775  21551.725263    800.611389
PC12  13910.081042  22643.140710   8524.198714    906.161287
PC13 -13224.326374  30864.606933  25446.541982    341.461798
PC14  27613.396702   2652.046590  -2736.933735    298.920028
PC16  -7994.371390  38049.018501  16936.006333    -53.202317
PC19 -25090.666250   3847.822862  11634.907200   -969.482607
PC20 -26372.292536  -7755.007161  -4897.818937    330.520085
PC21  11694.400734  15676.021618  19903.140468   -957.096638
PC22  -9325.333136  13846.149341  22356.292149   -333.603188
PC23  15084.736877 -23101.584588   4212.828780   -891.230185
PC24  15701.906766   6192.361917 -22231.111954    327.911425
PC25  21416.004554 -13215.504126 -12089.132778    198.187128
PC26   1783.857151  20147.485696 -19223.367856   -169.063949
PC27  -9697.557999 -26163.682122   -268.271913    190.393819
PC28   2602.005211 -23406.706326  14981.122752    142.572635
PC29 -14841.701397   5964.469183 -22872.677899    166.395516
PC30 -17804.224419 -14792.747047 -15583.883531     -4.047445
PC32 -11735.061373 -15605.074277 -19935.634082   -530.454040
PC33  25101.714347  -3946.698119 -11522.568471   -948.327471
PC34  17991.467252  13501.808910  16511.494211    246.161807
PC35  -1935.290809  23412.235599 -15098.354390    559.247044
PC36 -21739.000315  11988.231122  12764.897778   -255.873736
PC37   -476.019495 -20693.488283  18744.894130   -814.890011
PC38 -25055.393019  31279.489138  12822.549777    100.841045
PC39  -9528.527244  34792.696180  22066.570538     -4.513237
PC40 -13328.237441  19359.583760 -34996.151377    -34.343253
PC41  10043.696378 -13655.670875 -22120.531070   -883.959992
PC42  25776.030674   8590.649727   6345.925521   -565.130625
PC43  15328.458646  -5010.960290  22764.356767     37.072957
PC44  10538.221653  25853.957095     34.489263    212.754322
PC45 -14786.046047  23174.373836  -4724.788592    -18.721779
PC46 -16378.657649  -4909.475732  22050.882884    -79.656658
PE02  27203.954833 -11183.709947   3392.249743     58.214901
PE03  18154.019353  -5194.641988 -22797.872798    -49.977650
PE04  -1056.547082  19753.155310  22022.980053   -198.548988
PE05  24783.634333  12500.242422 -10277.225803     12.782264
PE07 -16644.644300 -22935.024469  -8567.433409    -70.384129
PE08   1368.551328 -19439.532130 -22286.368020   -136.744974
PE09  16580.958032  22897.022631   8747.559261   -134.935890
PE10  -1472.008493  28772.293612   6751.036247   -559.187485
PE11   5521.424165  24260.426289  16022.153030   2810.673553
PE12  -7693.906012  28464.515844  -2652.646372   -673.930200
PE13  -5061.599013 -24700.492114 -15510.640816    -19.515708
PE14  -7239.232005  18341.058553 -21325.957729    323.010644
PE15   7873.255874 -28372.752170   3052.791996    -48.378428
PE18  -9713.008690 -24563.155515  11381.987470    460.876724
PE19 -19706.793234   2676.093134  21927.835978  -1761.721608
PE21 -26054.942436  -1647.086019  13957.149138   -549.068882
PE24   9088.339380  14589.966514 -24106.158740   -288.329057
PE25  25885.623350   1892.964421 -14221.363719     -0.888052
PE26 -15221.931641  -5871.404776 -24699.444218    204.750255
PE27  -9752.402684 -14242.702704  24054.205649   -134.810174
PE30  12609.783766 -18266.015133  19586.679772   -451.074213
PE31 -12106.371568  18296.901388 -19856.231542     -3.640596
PE33 -16138.439273  14746.118369 -19952.566030     -1.129535
PE34  15986.995568 -15445.207220  19544.732642    -63.765525
PE36  14849.233718   6627.957476  24729.839744   -107.138686
PG01  13722.161029 -17612.143327  13774.512356    167.193165
PG02  15034.327440 -11181.879281  19260.032665   -560.921531
PG03  21496.608737 -12787.278717  -8909.771704   -166.957539
PG04  11544.327560  -9859.630984 -21787.281644    137.967093
PG05 -25469.937971   4243.339046  -6633.520114   -140.382585
PG06  -6974.065310 -18988.489288 -17102.022482    560.313663
PG07   5171.480341 -25773.392109   1120.183974     84.220272
PG08  19376.234994    -67.059229  18264.539178   -139.213942
PG09   2374.730260 -17040.916786 -20300.647919    -75.948020
PG10   7784.904939  13047.486203  21993.176311    -50.942852
PG11 -14110.152562  -5515.824452 -21804.756959   -339.839427
PG12 -24162.738461   9552.764502  -5578.965662   -417.724379
PG13 -20291.973512  -9688.546260  14111.704971    565.173713
PG14  -3850.280662 -15027.936636  21579.718672    166.571561
PG15 -18891.466108   3132.779435  18028.246136     71.673275
PG16  24698.788853   2169.594863 -10429.929125   -462.738982
PG17 -11432.689750 -21928.036529   9968.111810    723.214733
PG18  -4358.680995  25926.726218   3031.805036   -396.784725
PG19 -16818.386081 -20740.867495   1280.413288    363.233756
PG20 -20949.997889  -2269.360905 -16015.500676    415.056843
PG21  15464.843084  -7732.439921  20429.766104    150.038194
PG22 -11234.195424 -12536.474835  20943.934412    133.689623
PG23  -6341.989656  16371.469004  19880.777369     60.283813
PG24 -14499.387161  13769.549634  16898.290507   -301.960314
PG25 -13550.546308  16370.954621 -16078.746530    464.466685
PG26  17954.262942   7621.335388 -18296.617249    231.263073
PG27  22114.457088  11329.337421   9686.855481    -29.194037
PG28   6990.313362  20468.815598 -15437.733084     -2.301383
PG29  -3734.042166  16465.127892 -20525.293201   -608.485058
PG30  -1783.645167 -24446.063991  10016.584920   -493.056454
PG31  12520.191355  10799.097433 -20883.654943   -222.477371
PJ02 -35707.748927  17311.874518  -9615.042964     -3.113088
PJ03 -20651.595604  28756.016459 -18236.112870     -1.661105
PJ04 -26580.210823  28273.023987  22308.446117     70.495679
PR01  -5978.626740 -12699.461270 -21305.427538     64.330816
PR02 -20869.331234 -11949.530406  -8364.755228    -22.496013
PR03 -23483.711615  -3945.282962   9102.012389     84.065116
PR04 -13056.010314   5654.253057  21191.305136    200.343505
PR05   4364.376612  12459.357376  21837.945282    117.992648
PR07  23311.585402   3592.295055  -9744.773947     63.313479
PR08  12939.951900  -5881.189508 -21135.982704    -72.301746
PR09   9667.438578   6448.841491 -22678.720040    138.946121
PR11  18974.235665 -17011.658785    888.386375   -144.348137
PR12   6541.094604 -16920.215666  17969.169310     30.614127
PR13  -7772.082855  -7882.468384  22972.854316    -38.581765
PR14 -19601.759414   7663.934297  14445.346928     25.145073
PR15 -18656.283659  17261.549212  -2180.834614     86.673892
PR16  -6810.315148  16987.561356 -17770.327510     18.101486
PR17 -10907.211350  -1637.858909 -22997.811712     12.352342
PR18  -6214.725190  15625.538134 -19183.447160     98.834062
PR19    119.070229  24535.185071  -6955.630280   -244.996386
PR20   8650.450450  19819.576809  13559.886182    -99.020153
PR21  10664.812166    464.611986  23162.824119    -33.456319
PR22   6689.115548 -16260.943440  18501.929341    119.975524
PR24  -9802.426971 -19011.823687 -13902.341517    -22.035673
PR25  11130.522791   2050.847188  22860.996329     40.640798
EOF
